{
    "links": {
        "self": "http://www.neowsapp.com/rest/v1/neo/3645127?api_key=iIulBulltgU6a56xZRHN4H3l9WmuAYTsLGpBGhQ2"
    },
    "id": "3645127",
    "neo_reference_id": "3645127",
    "name": "(2013 OV2)",
    "designation": "2013 OV2",
    "nasa_jpl_url": "http://ssd.jpl.nasa.gov/sbdb.cgi?sstr=3645127",
    "absolute_magnitude_h": 21.8,
    "estimated_diameter": {
        "kilometers": {
            "estimated_diameter_min": 0.1160259082,
            "estimated_diameter_max": 0.2594418179
        },
        "meters": {
            "estimated_diameter_min": 116.0259082094,
            "estimated_diameter_max": 259.4418179074
        },
        "miles": {
            "estimated_diameter_min": 0.0720951346,
            "estimated_diameter_max": 0.1612096218
        },
        "feet": {
            "estimated_diameter_min": 380.6624406898,
            "estimated_diameter_max": 851.1870938635
        }
    },
    "is_potentially_hazardous_asteroid": false,
    "close_approach_data": [
        {
            "close_approach_date": "2013-07-06",
            "close_approach_date_full": "2013-Jul-06 15:09",
            "epoch_date_close_approach": 1373123340000,
            "relative_velocity": {
                "kilometers_per_second": "13.5194998797",
                "kilometers_per_hour": "48670.1995670273",
                "miles_per_hour": "30241.7692809676"
            },
            "miss_distance": {
                "astronomical": "0.0951571766",
                "lunar": "37.0161416974",
                "kilometers": "14235310.934573842",
                "miles": "8845412.0475373396"
            },
            "orbiting_body": "Earth"
        },
        {
            "close_approach_date": "2020-07-21",
            "close_approach_date_full": "2020-Jul-21 15:36",
            "epoch_date_close_approach": 1595345760000,
            "relative_velocity": {
                "kilometers_per_second": "18.6908103619",
                "kilometers_per_hour": "67286.9173027601",
                "miles_per_hour": "41809.4736984845"
            },
            "miss_distance": {
                "astronomical": "0.2536066901",
                "lunar": "98.6530024489",
                "kilometers": "37939020.656710087",
                "miles": "23574214.2852377206"
            },
            "orbiting_body": "Earth"
        },
        {
            "close_approach_date": "2027-08-02",
            "close_approach_date_full": "2027-Aug-02 20:35",
            "epoch_date_close_approach": 1817238900000,
            "relative_velocity": {
                "kilometers_per_second": "24.4292067477",
                "kilometers_per_hour": "87945.1442917398",
                "miles_per_hour": "54645.6925739424"
            },
            "miss_distance": {
                "astronomical": "0.4521391234",
                "lunar": "175.8821190026",
                "kilometers": "67639049.804307158",
                "miles": "42028956.6397804604"
            },
            "orbiting_body": "Earth"
        }
    ],
    "orbital_data": {
        "orbit_id": "17",
        "orbit_determination_date": "2017-04-06 08:45:18",
        "first_observation_date": "2013-07-17",
        "last_observation_date": "2013-08-31",
        "data_arc_in_days": 45,
        "observations_used": 70,
        "orbit_uncertainty": "7",
        "minimum_orbit_intersection": ".0588938",
        "jupiter_tisserand_invariant": "3.311",
        "epoch_osculation": "2459000.5",
        "eccentricity": ".5990536677640823",
        "semi_major_axis": "2.311765150588376",
        "inclination": "6.683399692986906",
        "ascending_node_longitude": "245.9827556008134",
        "orbital_period": "1283.849143445196",
        "perihelion_distance": ".9268937581192233",
        "perihelion_argument": "352.9386896718433",
        "aphelion_distance": "3.696636543057529",
        "perihelion_time": "2459015.395051509317",
        "mean_anomaly": "355.8233266184495",
        "mean_motion": ".2804067766357219",
        "equinox": "J2000",
        "orbit_class": {
            "orbit_class_type": "APO",
            "orbit_class_description": "Near-Earth asteroid orbits which cross the Earth’s orbit similar to that of 1862 Apollo",
            "orbit_class_range": "a (semi-major axis) > 1.0 AU; q (perihelion) < 1.017 AU"
        }
    },
    "is_sentry_object": false
}